LUME 1                  
1 43908U 18111AJ  22354.23985194  .00019006  00000+0  56073-3 0  9992
2 43908  97.1664 236.3915 0017841 123.3789 236.9165 15.34872766221840
AOBA VELOX-IV           
1 43940U 19003J   22353.60790225  .00069628  00000+0  12170-2 0  9992
2 43940  97.1080  25.1644 0012110 182.0355 178.0850 15.50339013218671
MOVE-IIB                
1 44398U 19038N   22353.89300190  .00021096  00000+0  86364-3 0  9991
2 44398  97.6458 325.7989 0017529 199.6518 160.4047 15.24196583191226
SONATE                  
1 44400U 19038Q   22353.98952748  .00008067  00000+0  41219-3 0  9990
2 44400  97.6641 323.8151 0021364 209.3669 150.6365 15.16756471191034
LUCKY-7                 
1 44406U 19038W   22353.65536031  .00010224  00000+0  50173-3 0  9990
2 44406  97.6616 324.2480 0020282 206.7975 153.2212 15.18115928191039
BEESAT 9                
1 44412U 19038AC  22354.15900685  .00014664  00000+0  66935-3 0  9998
2 44412  97.6576 325.4669 0017378 206.7875 153.2464 15.20576694190878
JAISAT-1                
1 44419U 19038F   22353.36407844  .00013673  00000+0  61710-3 0  9991
2 44419  97.6577 325.6367 0016436 205.9129 154.1285 15.20995852191121
DUCHIFAT-3              
1 44854U 19089C   22354.42911238  .00006719  00000+0  49939-3 0  9997
2 44854  36.9646  76.6768 0008074 298.3040 156.8231 15.02661575165901
EYESAT-NANO             
1 44877U 19092E   22354.00651235  .00019901  00000+0  74562-3 0  9995
2 44877  97.4581 177.6340 0011668  66.0810 294.1649 15.27243273166630
ORBITAL FACTORY 2 (OF-2)
1 45113U 19071C   22353.91326965  .00076305  00000+0  90440-3 0  9998
2 45113  51.6325 218.8838 0011092 146.0500 214.1205 15.60469887162160
M2 PATHFINDER           
1 45727U 20037E   22353.75490679  .00001903  00000+0  19007-3 0  9991
2 45727  97.7401 166.0394 0013155 136.3760 223.8496 14.92609182134469
NETSAT-4                
1 46504U 20068U   22353.80300342  .00004025  00000+0  29008-3 0  9992
2 46504  97.7425 293.5425 0013306  58.8486 301.4042 15.04675248121906
NETSAT-3                
1 46505U 20068V   22353.89045309  .00004727  00000+0  34018-3 0  9997
2 46505  97.7410 293.5161 0012745  69.2562 291.0011 15.04642385121923
NETSAT-1                
1 46506U 20068W   22353.84743931  .00005510  00000+0  39666-3 0  9994
2 46506  97.7391 293.3836 0010383  76.6324 283.6058 15.04579466121919
NETSAT-2                
1 46507U 20068X   22353.79185293  .00005001  00000+0  36039-3 0  9996
2 46507  97.7399 293.3205 0009915  79.7469 280.4876 15.04585963121856
SAI-1 NANOCONNECT-2     
1 47701U 21015C   22353.97661988  .00023460  00000+0  74452-3 0  9996
2 47701  97.4082  70.4221 0010582 149.1443 211.0423 15.32622015100572
WILDTRACKCUBE-SIMBA     
1 47941U 21022K   22354.52741990  .00006353  00000+0  40632-3 0  9999
2 47941  97.5142 250.0448 0019102 227.0622 255.9773 15.08800570 96032
BEESAT-6                
1 47957U 21022AB  22354.15656730  .00012762  00000+0  75258-3 0  9995
2 47957  97.5124 250.2544 0017469 227.5819 132.3934 15.11570791 95821
SMOG-1                  
1 47964U 21022AJ  22353.95968586  .00012303  00000+0  69505-3 0  9994
2 47964  97.5151 251.5554 0015879 214.5466 145.4734 15.13146640 94906
MMSATS-1                
1 47976U 98067SJ  22354.44481547  .00066616  00000+0  48938-3 0  9995
2 47976  51.6369 103.5556 0002152 293.4873 184.1930 15.72472810 99377
BCCSAT-1                
1 48041U 21022AK  22353.66619270  .00012934  00000+0  75529-3 0  9995
2 48041  97.5156 250.6265 0012918 214.0335 146.0068 15.11980330 94792
BEESAT-5                
1 48083U 21022AM  22353.98198207  .00013873  00000+0  80613-3 0  9991
2 48083  97.5101 250.1296 0017137 227.3794 132.5992 15.12085435 94936
BEESAT-7                
1 48084U 21022AN  22353.21043962  .00012827  00000+0  75196-3 0  9993
2 48084  97.5114 249.3575 0017475 230.8238 129.1441 15.11780271 94400
BEESAT-8                
1 48085U 21022AP  22354.43450787  .00009135  00000+0  54719-3 0  9992
2 48085  97.5131 250.4941 0017671 225.9715 134.0060 15.11091701 95140
LEDSAT                  
1 49069U 21073D   22354.46818447  .00006860  00000+0  41820-3 0  9996
2 49069  97.5073  63.6642 0026554  19.9774 340.2489 15.10376494 73894
HSU-SAT1                
1 53462U 98067UB  22354.08770523  .00095810  00000+0  95612-3 0  9996
2 53462  51.6345 129.1967 0008197 251.8268 108.1834 15.64817309 20212
FUTABA                  
1 53463U 98067UC  22353.78621085  .00139682  00000+0  11897-2 0  9999
2 53463  51.6328 129.4204 0008678 254.3979 105.6060 15.68561818 20186
TUMNANOSAT              
1 53464U 98067UD  22353.67233573  .00219328  00000+0  15433-2 0  9995
2 53464  51.6319 128.6522 0008957 259.6781 100.3208 15.72863112 20183
1998-067UL              
1 54534U 98067UL  22353.66242911  .00057867  00000+0  94860-3 0  9999
2 54534  51.6398 137.6157 0005882 189.7306 170.3571 15.51875586  2740
1998-067UM              
1 54535U 98067UM  22354.57790830  .00056168  00000+0  91153-3 0  9994
2 54535  51.6436 133.0533 0006093 195.1992 248.5109 15.52167954  2883
1998-067UN              
1 54536U 98067UN  22354.32172650  .00043232  00000+0  71356-3 0  9993
2 54536  51.6440 134.3407 0006332 190.7561 252.2749 15.51808997  2804
1998-067UP              
1 54537U 98067UP  22353.87889362  .00048523  00000+0  79566-3 0  9997
2 54537  51.6424 136.5296 0006575 191.1391 301.8653 15.51938578  2772
BEIJING 1               
1 28890U 05043A   22354.14725849  .00000334  00000+0  76673-4 0  9997
2 28890  98.1380 113.3833 0014210 316.4267  43.5805 14.61564119914262
HJ-1A                   
1 33320U 08041A   22354.60586326  .00000633  00000+0  94187-4 0  9990
2 33320  97.6607  18.7746 0020877 350.4778   9.6038 14.78024109769889
HJ-1B                   
1 33321U 08041B   22354.62344991  .00001304  00000+0  18548-3 0  9995
2 33321  97.6760  22.7302 0034413   7.2496 352.9215 14.78099447769886
YAOGAN 4                
1 33446U 08061A   22354.55050229  .00000838  00000+0  12407-3 0  9994
2 33446  97.8361 289.1924 0014757 250.5878 109.3738 14.77630584757072
DEIMOS-1                
1 35681U 09041A   22354.09188169  .00000547  00000+0  93975-4 0  9997
2 35681  97.6926 195.4543 0001927  34.9387 325.1948 14.72206050719082
UK-DMC 2                
1 35683U 09041C   22354.53439812  .00000830  00000+0  14073-3 0  9998
2 35683  97.7095 157.7316 0001706  73.0767 287.0635 14.71642453718877
RISAT 1                 
1 38248U 12017A   22354.49660438  .00005257  00000+0  29897-3 0  9998
2 38248  97.5488   3.9293 0003792   4.8081 355.3186 15.13293518586969
DMC3-FM1                
1 40715U 15032A   22354.65418516  .00000736  00000+0  98559-4 0  9995
2 40715  97.8215 237.5550 0004517 275.4639  84.6067 14.82322899400879
DMC3-FM2                
1 40716U 15032B   22354.61009328  .00000868  00000+0  11503-3 0  9998
2 40716  97.8259 238.2506 0006499 278.6588  81.3955 14.82317990400872
DMC3-FM3                
1 40717U 15032C   22354.63052256  .00000740  00000+0  99069-4 0  9992
2 40717  97.8301 239.2658 0008046 275.1041  84.9235 14.82312725400877
NOAA 15                 
1 25338U 98030A   22354.54786044  .00000172  00000+0  89747-4 0  9993
2 25338  98.6263  21.4879 0011364 113.2557 246.9821 14.26210297279797
DMSP 5D-3 F15 (USA 147) 
1 25991U 99067A   22353.89499028  .00000228  00000+0  13748-3 0  9998
2 25991  99.0647 348.7637 0010530  28.3991  87.4726 14.16613006190048
DMSP 5D-3 F16 (USA 172) 
1 28054U 03048A   22354.54506628  .00000136  00000+0  96135-4 0  9993
2 28054  99.0025 346.4497 0007775 146.0603  18.5515 14.13717575989315
NOAA 18                 
1 28654U 05018A   22354.46751448  .00000223  00000+0  14376-3 0  9994
2 28654  98.9313  64.5846 0014672 162.5398 197.6281 14.12824768906335
METEOSAT-9 (MSG-2)      
1 28912U 05049B   22353.89793920  .00000150  00000+0  00000+0 0  9996
2 28912   6.4382  65.0599 0000629 215.2908 177.0196  1.00271679 62298
EWS-G1 (GOES 13)        
1 29155U 06018A   22353.82940325  .00000063  00000+0  00000+0 0  9992
2 29155   1.0491  93.3474 0006300 152.8135 202.3271  1.00275480 30583
DMSP 5D-3 F17 (USA 191) 
1 29522U 06050A   22354.51692161  .00000179  00000+0  11669-3 0  9990
2 29522  98.7608   6.0364 0010842  91.9456 268.2959 14.14150077832204
FENGYUN 3A              
1 32958U 08026A   22354.44170971  .00000136  00000+0  85557-4 0  9995
2 32958  98.5306 309.7127 0008256 199.1286 160.9582 14.18772381754702
FENGYUN 2E              
1 33463U 08066A   22354.12143020 -.00000184  00000+0  00000+0 0  9990
2 33463   6.3178  64.1890 0001038 262.7788 252.3738  1.00271992 51306
NOAA 19                 
1 33591U 09005A   22354.56098241  .00000209  00000+0  13748-3 0  9992
2 33591  99.1265  32.4143 0014252  29.0088 331.1873 14.12654045714722
GOES 14                 
1 35491U 09033A   22354.51363266 -.00000067  00000+0  00000+0 0  9997
2 35491   0.1469 256.5216 0017644 328.8547 304.3830  1.00270157 49377
METEOR-M 1              
1 35865U 09049A   22354.46011006  .00000130  00000+0  77564-4 0  9999
2 35865  98.5552 319.1688 0003230  58.5827 301.5667 14.22389330688120
DMSP 5D-3 F18 (USA 210) 
1 35951U 09057A   22354.49338526  .00000300  00000+0  18198-3 0  9992
2 35951  98.7460 329.5092 0010117 279.0546  80.9482 14.13607743679393
GOES 15                 
1 36411U 10008A   22354.43050666  .00000078  00000+0  00000+0 0  9993
2 36411   0.1022 285.5373 0003620 263.4260 287.7039  1.00258423 46875
COMS 1                  
1 36744U 10032A   22354.41653088 -.00000318  00000+0  00000+0 0  9992
2 36744   1.5457  91.5687 0000622 175.6634  99.8779  1.00270717 45874
FENGYUN 3B              
1 37214U 10059A   22353.85086428  .00000044  00000+0  47315-4 0  9999
2 37214  99.0918   3.1188 0022015 190.0922 169.9814 14.14279430627164
SUOMI NPP               
1 37849U 11061A   22354.42859400  .00000106  00000+0  71015-4 0  9992
2 37849  98.7520 290.5380 0001306  93.7327   6.8655 14.19527466577578
